STARLINK-31476          
1 59523U 24073N   26196.38766186 -.00000630  00000+0 -13370-4 0  9997
2 59523  43.0036 316.9973 0001012 247.0010 113.0735 15.27571151125708
STARLINK-31538          
1 59525U 24073Q   26196.36196271 -.00000808  00000+0 -19854-4 0  9999
2 59525  43.0031 316.8054 0001431 279.9487  80.1203 15.27570453125709
STARLINK-31564          
1 59526U 24073R   26196.35424857  .00000008  00000+0  97951-5 0  9998
2 59526  42.9967 316.7410 0001198 234.3952 125.6788 15.27573000125707
STARLINK-31452          
1 59527U 24073S   26196.39793625  .00000022  00000+0  10335-4 0  9991
2 59527  43.0032 317.0707 0001298 256.8283 103.2424 15.27576630125704
STARLINK-31513          
1 59529U 24073U   26196.39585131 -.00000255  00000+0  27661-6 0  9995
2 59529  43.0047 313.5630 0002154 288.5139  71.5479 15.27572375125745
STARLINK-31392          
1 59530U 24073V   26196.37994862 -.00003041  00000+0 -10105-3 0  9999
2 59530  43.0057 316.9383 0001828 279.0949  80.9695 15.27566258125704
STARLINK-31619          
1 59531U 24073W   26196.36581439 -.00000177  00000+0  31031-5 0  9990
2 59531  43.0040 316.8343 0000914 252.5182 107.5570 15.27576900126829
STARLINK-31509          
1 59533U 24073Y   26195.68640009 -.00000448  00000+0 -67480-5 0  9994
2 59533  43.0016 321.2019 0001465 255.7849 104.2840 15.27575606125590
STARLINK-31734          
1 59534U 24074A   26196.41147121  .00000106  00000+0  13367-4 0  9998
2 59534  43.0011 331.3246 0001166 249.2391 110.8335 15.27575790125673
STARLINK-31738          
1 59535U 24074B   26196.42847910  .00000060  00000+0  11692-4 0  9991
2 59535  43.0029 338.2948 0001104 263.5902  96.4824 15.27577321125592
STARLINK-31721          
1 59536U 24074C   26196.43057815 -.00001321  00000+0 -38499-4 0  9997
2 59536  42.9990 341.8507 0000766 248.3757 111.7013 15.27578861125558
STARLINK-31737          
1 59537U 24074D   26196.44471175 -.00000214  00000+0  17599-5 0  9996
2 59537  42.9993 341.9549 0001146 173.4837 186.6029 15.27573571125550
STARLINK-31539          
1 59539U 24074F   26196.45628314 -.00000455  00000+0 -70032-5 0  9997
2 59539  43.0033 342.0467 0001057 252.1317 107.9420 15.27568345125553
STARLINK-31397          
1 59540U 24074G   26196.66657142  .00000562  00000+0  29968-4 0  9991
2 59540  43.0037 341.0410 0001600 257.2805 102.7868 15.27575767125586
STARLINK-31481          
1 59541U 24074H   26196.48183237  .00002296  00000+0  92936-4 0  9992
2 59541  43.0044 341.3823 0001790 278.0369  82.0279 15.27576411125563
STARLINK-31540          
1 59542U 24074J   26196.43443565 -.00000699  00000+0 -15878-4 0  9998
2 59542  42.9991 341.8765 0000895 196.9704 163.1118 15.27572974125551
STARLINK-31574          
1 59543U 24074K   26196.46013884 -.00000357  00000+0 -34262-5 0  9999
2 59543  43.0048 342.0767 0001819 288.7713  71.2941 15.27572362125553
STARLINK-31556          
1 59544U 24074L   26196.46270198  .00000837  00000+0  39949-4 0  9990
2 59544  43.0037 342.0973 0001270 262.0428  98.0280 15.27576905125550
STARLINK-31582          
1 59545U 24074M   26196.47426940  .00000749  00000+0  36732-4 0  9999
2 59545  43.0052 342.1776 0001415 263.7282  96.3409 15.27575398125556
STARLINK-31519          
1 59546U 24074N   26196.48825734 -.00000482  00000+0 -79977-5 0  9990
2 59546  42.9997 341.4239 0001160 225.9888 134.0868 15.27573589125568
STARLINK-31736          
1 59547U 24074P   26196.44825141 -.00000632  00000+0 -13448-4 0  9996
2 59547  43.0021 335.0520 0001379 191.7672 168.3147 15.27587705125637
STARLINK-31675          
1 59548U 24074Q   26196.43828731 -.00003834  00000+0 -12990-3 0  9991
2 59548  43.0012 341.9066 0001390 259.4085 100.6610 15.27574955125550
STARLINK-31722          
1 59549U 24074R   26196.41901666 -.00000055  00000+0  75167-5 0  9997
2 59549  43.0008 341.7657 0001016 245.9026 114.1719 15.27574456125556
STARLINK-31741          
1 59550U 24074S   26196.42670520 -.00003003  00000+0 -99498-4 0  9991
2 59550  43.0010 341.8255 0002760 203.2056 156.8671 15.27616818125552
STARLINK-31699          
1 59551U 24074T   26196.44085865 -.00000432  00000+0 -61667-5 0  9997
2 59551  43.0032 341.9256 0001160 256.6241 103.4482 15.27574801125553
STARLINK-31750          
1 59552U 24074U   26196.45242106  .00001866  00000+0  77363-4 0  9991
2 59552  43.0081 342.0171 0001235 270.5271  89.5440 15.27568126125558
STARLINK-31723          
1 59553U 24074V   26196.44856887 -.00000889  00000+0 -22810-4 0  9991
2 59553  43.0019 341.9863 0000591 268.9709  91.1075 15.27572675125554
STARLINK-31724          
1 59554U 24074W   26196.38521263  .00000528  00000+0  28712-4 0  9997
2 59554  43.0037 306.3369 0001210 258.1235 101.9481 15.27574754125950
STARLINK-31730          
1 59555U 24074X   26196.47812183  .00000112  00000+0  13617-4 0  9999
2 59555  43.0011 342.2012 0001550 265.3452  94.7222 15.27575497125558
STARLINK-31718          
1 59556U 24074Y   26196.46655578  .00000436  00000+0  25373-4 0  9993
2 59556  43.0039 342.1178 0001405 256.4034 103.6661 15.27579118125558
