OBJECT_NAME,OBJECT_ID,EPOCH,MEAN_MOTION,ECCENTRICITY,INCLINATION,RA_OF_ASC_NODE,ARG_OF_PERICENTER,MEAN_ANOMALY,EPHEMERIS_TYPE,CLASSIFICATION_TYPE,NORAD_CAT_ID,ELEMENT_SET_NO,REV_AT_EPOCH,BSTAR,MEAN_MOTION_DOT,MEAN_MOTION_DDOT
STARLINK-31476,2024-073N,2026-07-15T09:18:13.984704,15.27571151,.00010128,43.0036,316.9973,247.0010,113.0735,0,U,59523,999,12570,-.13369609E-4,-.63E-5,0
STARLINK-31538,2024-073Q,2026-07-15T08:41:13.578144,15.27570453,.00014317,43.0031,316.8054,279.9487,80.1203,0,U,59525,999,12570,-.19853624E-4,-.808E-5,0
STARLINK-31564,2024-073R,2026-07-15T08:30:07.076448,15.27573000,.00011988,42.9967,316.7410,234.3952,125.6788,0,U,59526,999,12570,.9795087E-5,.8E-7,0
STARLINK-31452,2024-073S,2026-07-15T09:33:01.692000,15.27576630,.0001298,43.0032,317.0707,256.8283,103.2424,0,U,59527,999,12570,.10334726E-4,.22E-6,0
STARLINK-31513,2024-073U,2026-07-15T09:30:01.553184,15.27572375,.00021545,43.0047,313.5630,288.5139,71.5479,0,U,59529,999,12574,.276613E-6,-.255E-5,0
STARLINK-31392,2024-073V,2026-07-15T09:07:07.560768,15.27566258,.00018283,43.0057,316.9383,279.0949,80.9695,0,U,59530,999,12570,-.10104698E-3,-.3041E-4,0
STARLINK-31619,2024-073W,2026-07-15T08:46:46.363296,15.27576900,.00009148,43.0040,316.8343,252.5182,107.5570,0,U,59531,999,12682,.3103113E-5,-.177E-5,0
STARLINK-31509,2024-073Y,2026-07-14T16:28:24.967776,15.27575606,.00014653,43.0016,321.2019,255.7849,104.2840,0,U,59533,999,12559,-.6748038E-5,-.448E-5,0
STARLINK-31734,2024-074A,2026-07-15T09:52:31.112544,15.27575790,.00011669,43.0011,331.3246,249.2391,110.8335,0,U,59534,999,12567,.13366792E-4,.106E-5,0
STARLINK-31738,2024-074B,2026-07-15T10:17:00.594240,15.27577321,.00011044,43.0029,338.2948,263.5902,96.4824,0,U,59535,999,12559,.11692127E-4,.6E-6,0
STARLINK-31721,2024-074C,2026-07-15T10:20:01.952160,15.27578861,.0000766,42.9990,341.8507,248.3757,111.7013,0,U,59536,999,12555,-.38499003E-4,-.1321E-4,0
STARLINK-31737,2024-074D,2026-07-15T10:40:23.095200,15.27573571,.00011461,42.9993,341.9549,173.4837,186.6029,0,U,59537,999,12555,.1759926E-5,-.214E-5,0
STARLINK-31539,2024-074F,2026-07-15T10:57:02.863296,15.27568345,.0001057,43.0033,342.0467,252.1317,107.9420,0,U,59539,999,12555,-.7003214E-5,-.455E-5,0
STARLINK-31397,2024-074G,2026-07-15T15:59:51.770688,15.27575767,.00016003,43.0037,341.0410,257.2805,102.7868,0,U,59540,999,12558,.29968136E-4,.562E-5,0
STARLINK-31481,2024-074H,2026-07-15T11:33:50.316768,15.27576411,.00017905,43.0044,341.3823,278.0369,82.0279,0,U,59541,999,12556,.92935543E-4,.2296E-4,0
STARLINK-31540,2024-074J,2026-07-15T10:25:35.240160,15.27572974,.00008952,42.9991,341.8765,196.9704,163.1118,0,U,59542,999,12555,-.15878425E-4,-.699E-5,0
STARLINK-31574,2024-074K,2026-07-15T11:02:35.995776,15.27572362,.00018194,43.0048,342.0767,288.7713,71.2941,0,U,59543,999,12555,-.342625E-5,-.357E-5,0
STARLINK-31556,2024-074L,2026-07-15T11:06:17.451072,15.27576905,.00012708,43.0037,342.0973,262.0428,98.0280,0,U,59544,999,12555,.39949005E-4,.837E-5,0
STARLINK-31582,2024-074M,2026-07-15T11:22:56.876160,15.27575398,.00014153,43.0052,342.1776,263.7282,96.3409,0,U,59545,999,12555,.36732495E-4,.749E-5,0
STARLINK-31519,2024-074N,2026-07-15T11:43:05.434176,15.27573589,.00011604,42.9997,341.4239,225.9888,134.0868,0,U,59546,999,12556,-.7997695E-5,-.482E-5,0
STARLINK-31736,2024-074P,2026-07-15T10:45:28.921824,15.27587705,.00013794,43.0021,335.0520,191.7672,168.3147,0,U,59547,999,12563,-.13447722E-4,-.632E-5,0
STARLINK-31675,2024-074Q,2026-07-15T10:31:08.023584,15.27574955,.00013908,43.0012,341.9066,259.4085,100.6610,0,U,59548,999,12555,-.12990487E-3,-.3834E-4,0
STARLINK-31722,2024-074R,2026-07-15T10:03:23.039424,15.27574456,.00010165,43.0008,341.7657,245.9026,114.1719,0,U,59549,999,12555,.7516663E-5,-.55E-6,0
STARLINK-31741,2024-074S,2026-07-15T10:14:27.329280,15.27616818,.00027604,43.0010,341.8255,203.2056,156.8671,0,U,59550,999,12555,-.99498412E-4,-.3003E-4,0
STARLINK-31699,2024-074T,2026-07-15T10:34:50.187360,15.27574801,.00011608,43.0032,341.9256,256.6241,103.4482,0,U,59551,999,12555,-.6166676E-5,-.432E-5,0
STARLINK-31750,2024-074U,2026-07-15T10:51:29.179584,15.27568126,.00012355,43.0081,342.0171,270.5271,89.5440,0,U,59552,999,12555,.77362501E-4,.1866E-4,0
STARLINK-31723,2024-074V,2026-07-15T10:45:56.350368,15.27572675,.00005915,43.0019,341.9863,268.9709,91.1075,0,U,59553,999,12555,-.22809675E-4,-.889E-5,0
STARLINK-31724,2024-074W,2026-07-15T09:14:42.371232,15.27574754,.00012109,43.0037,306.3369,258.1235,101.9481,0,U,59554,999,12595,.2871179E-4,.528E-5,0
STARLINK-31730,2024-074X,2026-07-15T11:28:29.726112,15.27575497,.00015503,43.0011,342.2012,265.3452,94.7222,0,U,59555,999,12555,.13616727E-4,.112E-5,0
STARLINK-31718,2024-074Y,2026-07-15T11:11:50.419392,15.27579118,.0001405,43.0039,342.1178,256.4034,103.6661,0,U,59556,999,12555,.25373215E-4,.436E-5,0
